STARLINK-31495          
1 59313U 24056T   26068.46122597 -.00001484  00000+0 -44413-4 0  9994
2 59313  43.0007 224.6995 0001284 269.6644  90.4060 15.27571993111209
TRANSPORTER-12 OBJECT BT
1 62674U 25009BT  26068.71416991  .00013824  00000+0  51029-3 0  9998
2 62674  97.4094 151.5992 0003682 313.5044  46.5889 15.27872239121360
